[{"OBJECT_NAME":"OBJECT V","OBJECT_ID":"2023-085V","EPOCH":"2026-03-09T21:44:00.165408","MEAN_MOTION":15.30745852,"ECCENTRICITY":0.00069081,"INCLINATION":97.4843,"RA_OF_ASC_NODE":179.3833,"ARG_OF_PERICENTER":71.0503,"MEAN_ANOMALY":289.1485,"EPHEMERIS_TYPE":0,"CLASSIFICATION_TYPE":"U","NORAD_CAT_ID":57023,"ELEMENT_SET_NO":999,"REV_AT_EPOCH":15149,"BSTAR":0.00067780507,"MEAN_MOTION_DOT":0.00020109,"MEAN_MOTION_DDOT":0},{"OBJECT_NAME":"STARLINK-31610","OBJECT_ID":"2024-068U","EPOCH":"2026-03-09T06:57:28.653408","MEAN_MOTION":15.27581319,"ECCENTRICITY":9.735e-5,"INCLINATION":43.0045,"RA_OF_ASC_NODE":36.5943,"ARG_OF_PERICENTER":265.7582,"MEAN_ANOMALY":94.3159,"EPHEMERIS_TYPE":0,"CLASSIFICATION_TYPE":"U","NORAD_CAT_ID":59473,"ELEMENT_SET_NO":999,"REV_AT_EPOCH":10846,"BSTAR":-2.3710822e-5,"MEAN_MOTION_DOT":-9.14e-6,"MEAN_MOTION_DDOT":0}]
